[{"OBJECT_NAME":"FLOCK 4Q-27","OBJECT_ID":"2023-174AC","EPOCH":"2026-03-09T18:08:56.455008","MEAN_MOTION":15.49038169,"ECCENTRICITY":0.00065991,"INCLINATION":97.3847,"RA_OF_ASC_NODE":156.6778,"ARG_OF_PERICENTER":148.7525,"MEAN_ANOMALY":211.412,"EPHEMERIS_TYPE":0,"CLASSIFICATION_TYPE":"U","NORAD_CAT_ID":58282,"ELEMENT_SET_NO":999,"REV_AT_EPOCH":13033,"BSTAR":0.00055152381,"MEAN_MOTION_DOT":0.00029883,"MEAN_MOTION_DDOT":0},{"OBJECT_NAME":"SIT-HSE","OBJECT_ID":"2024-199AE","EPOCH":"2026-03-09T22:33:27.365184","MEAN_MOTION":15.47455321,"ECCENTRICITY":0.00045337,"INCLINATION":97.3131,"RA_OF_ASC_NODE":303.904,"ARG_OF_PERICENTER":302.8668,"MEAN_ANOMALY":57.2146,"EPHEMERIS_TYPE":0,"CLASSIFICATION_TYPE":"U","NORAD_CAT_ID":61763,"ELEMENT_SET_NO":999,"REV_AT_EPOCH":12221,"BSTAR":0.00051198137,"MEAN_MOTION_DOT":0.00026224,"MEAN_MOTION_DDOT":0}]
